GLOBALSTAR M069         
1 31573U 07020C   26156.66115977 -.00000048  00000+0  41039-3 0  9992
2 31573  52.0040 284.7490 0002550 124.6168 249.2922 12.23470970877395
GLOBALSTAR M072         
1 31574U 07020D   26156.66942316 -.00000089  00000+0 -65163-4 0  9999
2 31574  51.9904 130.9082 0001366 299.5825 231.8572 11.91658402873608
GLOBALSTAR M066         
1 32265U 07048C   26156.56520494 -.00000091  00000+0  31148-4 0  9993
2 32265  51.9584  91.2745 0005261  19.0210 152.1820 12.30389091858799
GLOBALSTAR M079         
1 37188U 10054A   26156.67870000 -.00000112  00000+0 -47512-4 0  9993
2 37188  52.0012 143.7029 0000440 353.7859 177.1529 12.62265935721095
GLOBALSTAR M074         
1 37189U 10054B   26156.70499520 -.00000113  00000+0 -50641-4 0  9990
2 37189  51.9988 142.8895 0000266  46.1867 124.4309 12.62268442721700
GLOBALSTAR M076         
1 37190U 10054C   26156.22156978 -.00000106  00000+0 -12183-4 0  9997
2 37190  52.0012 144.5631 0000435  26.5802 346.5630 12.62261853721363
GLOBALSTAR M077         
1 37191U 10054D   26156.46782308 -.00000075  00000+0  56600-4 0  9992
2 37191  51.9938 209.0425 0002928 151.6357 221.6681 11.67547625719770
GLOBALSTAR M075         
1 37192U 10054E   26156.41363730 -.00000108  00000+0 -23238-4 0  9991
2 37192  51.9923 186.0415 0000136 158.0605 307.9379 12.62267368720452
GLOBALSTAR M073         
1 37193U 10054F   26156.58680100 -.00000103  00000+0  60153-5 0  9995
2 37193  52.0052  99.6029 0000681  22.7188 149.2810 12.62262066722466
GLOBALSTAR M083         
1 37739U 11033A   26156.44107191 -.00000095  00000+0  47958-4 0  9995
2 37739  51.9871  48.2915 0000780  47.0234 123.8287 12.62262803691465
GLOBALSTAR M088         
1 37740U 11033B   26156.69720633 -.00000092  00000+0  68242-4 0  9992
2 37740  52.0228 313.9135 0000864 108.9229 264.6036 12.62268459687043
GLOBALSTAR M091         
1 37741U 11033C   26156.63091355 -.00000072  00000+0  17854-3 0  9999
2 37741  52.0006 277.0970 0000559 127.3778 245.8810 12.62263709687820
GLOBALSTAR M085         
1 37742U 11033D   26156.45918082 -.00000083  00000+0  11329-3 0  9998
2 37742  52.0117 228.9021 0000271 172.8763 199.7265 12.62263833688310
GLOBALSTAR M081         
1 37743U 11033E   26156.50598509 -.00000089  00000+0  84654-4 0  9991
2 37743  51.9949 231.2094 0000334 129.9767 334.9772 12.62264716688469
GLOBALSTAR M089         
1 37744U 11033F   26156.36732321 -.00000106  00000+0 -12589-4 0  9997
2 37744  51.9905 185.7926 0000376 107.7164 267.6005 12.62266867689292
GLOBALSTAR M084         
1 38040U 11080A   26156.49402205 -.00000085  00000+0  10504-3 0  9997
2 38040  52.0024  52.8796 0000975  67.3421 103.9455 12.62267500667288
GLOBALSTAR M080         
1 38041U 11080B   26156.46549398 -.00000102  00000+0  10918-4 0  9990
2 38041  52.0073  54.6803 0000263  73.0779  98.4893 12.62269117667406
GLOBALSTAR M082         
1 38042U 11080C   26155.74710769 -.00000089  00000+0  84429-4 0  9995
2 38042  52.0097  12.3672 0000518  84.4581 351.1958 12.62269794668029
GLOBALSTAR M092         
1 38043U 11080D   26156.61284088 -.00000111  00000+0 -43117-4 0  9999
2 38043  52.0082 100.1279 0000476  47.2425 123.3775 12.62266817666588
GLOBALSTAR M090         
1 38044U 11080E   26156.34893595 -.00000088  00000+0  85453-4 0  9990
2 38044  52.0144   4.4876 0000782  75.0967  95.6409 12.62268964668219
GLOBALSTAR M086         
1 38045U 11080F   26156.29201470 -.00000103  00000+0  40299-5 0  9998
2 38045  51.9918   4.6104 0001592  47.4910 124.6365 12.62286365668156
GLOBALSTAR M097         
1 39072U 13005A   26156.60182906 -.00000109  00000+0 -26708-4 0  9990
2 39072  52.0052 278.6016 0000450 117.3830 242.7082 12.62247530615446
GLOBALSTAR M093         
1 39073U 13005B   26156.57521265 -.00000077  00000+0  14894-3 0  9997
2 39073  52.0113 272.0259 0000354 107.7643 252.3263 12.62265600615390
GLOBALSTAR M094         
1 39074U 13005C   26156.33759053 -.00000104  00000+0 -11310-5 0  9994
2 39074  51.9933 186.8785 0000105 310.5321  49.5536 12.62268509616971
GLOBALSTAR M096         
1 39075U 13005D   26156.50940191 -.00000075  00000+0  15978-3 0  9997
2 39075  52.0066 235.1476 0000249 155.7824 204.3055 12.62265366615910
GLOBALSTAR M078         
1 39076U 13005E   26156.16562525 -.00000100  00000+0  21013-4 0  9998
2 39076  51.9886 320.2179 0000673 185.7750 174.3109 12.62260060614491
GLOBALSTAR M095         
1 39077U 13005F   26156.19240852 -.00000093  00000+0  62223-4 0  9997
2 39077  52.0094 317.7242 0000414 120.4467 239.6441 12.62263322614354
GLOBALSTAR M087         
1 52888U 22064A   26156.52244080 -.00000096  00000+0  42132-4 0  9991
2 52888  51.9988  97.9643 0000502  10.7747 349.3130 12.62268842189668
